{
  "type": "FeatureCollection",
  "features": [
    {
      "type": "Feature",
      "properties": {
        "norad_id": 26766,
        "name": "INTELSAT 10 (IS-10)",
        "group": "intelsat",
        "lat": 5.941022920565183,
        "lon": -162.16300935442604,
        "alt_km": 36124.43252333185,
        "timestamp": "2025-12-17T23:38:06.530168+00:00",
        "meta_object_name": "INTELSAT 10 (IS-10)",
        "meta_object_id": "2001-019A",
        "meta_epoch": "2025-12-17T14:32:02.416128",
        "meta_mean_motion": 0.99076648,
        "meta_eccentricity": 0.0007685,
        "meta_inclination": 8.6407,
        "meta_ra_of_asc_node": 61.1084,
        "meta_arg_of_pericenter": 227.8035,
        "meta_mean_anomaly": 133.4266,
        "meta_ephemeris_type": 0,
        "meta_classification_type": "U",
        "meta_norad_cat_id": 26766,
        "meta_element_set_no": 999,
        "meta_rev_at_epoch": 4378,
        "meta_bstar": 0,
        "meta_mean_motion_dot": -1.89e-06,
        "meta_mean_motion_ddot": 0,
        "tle_line1": "1 26766U 01019A   25351.60558352 -.00000189  00000+0  00000+0 0  9995",
        "tle_line2": "2 26766   8.6407  61.1084 0007685 227.8035 133.4266  0.99076648 43783"
      },
      "geometry": {
        "type": "Point",
        "coordinates": [
          -162.16300935442604,
          5.941022920565183
        ]
      }
    },
    {
      "type": "Feature",
      "properties": {
        "norad_id": 26900,
        "name": "INTELSAT 902 (IS-902)",
        "group": "intelsat",
        "lat": -3.8204235677380542,
        "lon": 31.439756864118877,
        "alt_km": 35798.748517268104,
        "timestamp": "2025-12-17T23:38:06.530192+00:00",
        "meta_object_name": "INTELSAT 902 (IS-902)",
        "meta_object_id": "2001-039A",
        "meta_epoch": "2025-12-15T13:09:02.081664",
        "meta_mean_motion": 1.0027087,
        "meta_eccentricity": 0.00045028,
        "meta_inclination": 5.6536,
        "meta_ra_of_asc_node": 74.0372,
        "meta_arg_of_pericenter": 189.6359,
        "meta_mean_anomaly": 327.9329,
        "meta_ephemeris_type": 0,
        "meta_classification_type": "U",
        "meta_norad_cat_id": 26900,
        "meta_element_set_no": 999,
        "meta_rev_at_epoch": 8885,
        "meta_bstar": 0,
        "meta_mean_motion_dot": -2.65e-06,
        "meta_mean_motion_ddot": 0,
        "tle_line1": "1 26900U 01039A   25349.54794076 -.00000265  00000+0  00000+0 0  9997",
        "tle_line2": "2 26900   5.6536  74.0372 0004502 189.6359 327.9329  1.00270870 88858"
      },
      "geometry": {
        "type": "Point",
        "coordinates": [
          31.439756864118877,
          -3.8204235677380542
        ]
      }
    },
    {
      "type": "Feature",
      "properties": {
        "norad_id": 27380,
        "name": "INTELSAT 904 (IS-904)",
        "group": "intelsat",
        "lat": -2.3434630978204547,
        "lon": 50.01945060527474,
        "alt_km": 35787.08771405377,
        "timestamp": "2025-12-17T23:38:06.530208+00:00",
        "meta_object_name": "INTELSAT 904 (IS-904)",
        "meta_object_id": "2002-007A",
        "meta_epoch": "2025-12-17T02:54:07.486272",
        "meta_mean_motion": 1.00271932,
        "meta_eccentricity": 0.00016548,
        "meta_inclination": 6.4651,
        "meta_ra_of_asc_node": 71.3825,
        "meta_arg_of_pericenter": 243.3413,
        "meta_mean_anomaly": 143.3108,
        "meta_ephemeris_type": 0,
        "meta_classification_type": "U",
        "meta_norad_cat_id": 27380,
        "meta_element_set_no": 999,
        "meta_rev_at_epoch": 4994,
        "meta_bstar": 0,
        "meta_mean_motion_dot": -2.06e-06,
        "meta_mean_motion_ddot": 0,
        "tle_line1": "1 27380U 02007A   25351.12091998 -.00000206  00000+0  00000+0 0  9991",
        "tle_line2": "2 27380   6.4651  71.3825 0001654 243.3413 143.3108  1.00271932 49947"
      },
      "geometry": {
        "type": "Point",
        "coordinates": [
          50.01945060527474,
          -2.3434630978204547
        ]
      }
    },
    {
      "type": "Feature",
      "properties": {
        "norad_id": 27426,
        "name": "DIRECTV 5 (TEMPO 1)",
        "group": "intelsat",
        "lat": -4.24710004374462,
        "lon": -28.753960389208608,
        "alt_km": 35776.89454400185,
        "timestamp": "2025-12-17T23:38:06.530223+00:00",
        "meta_object_name": "DIRECTV 5 (TEMPO 1)",
        "meta_object_id": "2002-023A",
        "meta_epoch": "2025-12-17T12:05:06.962784",
        "meta_mean_motion": 1.0027269,
        "meta_eccentricity": 0.00033946,
        "meta_inclination": 4.4138,
        "meta_ra_of_asc_node": 77.5982,
        "meta_arg_of_pericenter": 205.1809,
        "meta_mean_anomaly": 234.7633,
        "meta_ephemeris_type": 0,
        "meta_classification_type": "U",
        "meta_norad_cat_id": 27426,
        "meta_element_set_no": 999,
        "meta_rev_at_epoch": 8630,
        "meta_bstar": 0,
        "meta_mean_motion_dot": -3.6e-07,
        "meta_mean_motion_ddot": 0,
        "tle_line1": "1 27426U 02023A   25351.50355281 -.00000036  00000+0  00000+0 0  9991",
        "tle_line2": "2 27426   4.4138  77.5982 0003394 205.1809 234.7633  1.00272690 86307"
      },
      "geometry": {
        "type": "Point",
        "coordinates": [
          -28.753960389208608,
          -4.24710004374462
        ]
      }
    },
    {
      "type": "Feature",
      "properties": {
        "norad_id": 27438,
        "name": "INTELSAT 905 (IS-905)",
        "group": "intelsat",
        "lat": -4.997341706738594,
        "lon": -55.91943696132186,
        "alt_km": 35775.96327557717,
        "timestamp": "2025-12-17T23:38:06.530236+00:00",
        "meta_object_name": "INTELSAT 905 (IS-905)",
        "meta_object_id": "2002-027A",
        "meta_epoch": "2025-12-14T04:33:38.635200",
        "meta_mean_motion": 1.00274201,
        "meta_eccentricity": 0.00026501,
        "meta_inclination": 6.2894,
        "meta_ra_of_asc_node": 72.0398,
        "meta_arg_of_pericenter": 202.1249,
        "meta_mean_anomaly": 100.1717,
        "meta_ephemeris_type": 0,
        "meta_classification_type": "U",
        "meta_norad_cat_id": 27438,
        "meta_element_set_no": 999,
        "meta_rev_at_epoch": 4950,
        "meta_bstar": 0,
        "meta_mean_motion_dot": 1.08e-06,
        "meta_mean_motion_ddot": 0,
        "tle_line1": "1 27438U 02027A   25348.19003050  .00000108  00000+0  00000+0 0  9992",
        "tle_line2": "2 27438   6.2894  72.0398 0002650 202.1249 100.1717  1.00274201 49509"
      },
      "geometry": {
        "type": "Point",
        "coordinates": [
          -55.91943696132186,
          -4.997341706738594
        ]
      }
    },
    {
      "type": "Feature",
      "properties": {
        "norad_id": 27445,
        "name": "GALAXY 3C (G-3C)",
        "group": "intelsat",
        "lat": -3.2707692819986423,
        "lon": -13.494343012537577,
        "alt_km": 35791.03398063317,
        "timestamp": "2025-12-17T23:38:06.530249+00:00",
        "meta_object_name": "GALAXY 3C (G-3C)",
        "meta_object_id": "2002-030A",
        "meta_epoch": "2025-12-17T11:59:34.058400",
        "meta_mean_motion": 1.00272082,
        "meta_eccentricity": 0.00011011,
        "meta_inclination": 3.2753,
        "meta_ra_of_asc_node": 80.4579,
        "meta_arg_of_pericenter": 79.2626,
        "meta_mean_anomaly": 11.685,
        "meta_ephemeris_type": 0,
        "meta_classification_type": "U",
        "meta_norad_cat_id": 27445,
        "meta_element_set_no": 999,
        "meta_rev_at_epoch": 4467,
        "meta_bstar": 0,
        "meta_mean_motion_dot": -1.3e-06,
        "meta_mean_motion_ddot": 0,
        "tle_line1": "1 27445U 02030A   25351.49969975 -.00000130  00000+0  00000+0 0  9994",
        "tle_line2": "2 27445   3.2753  80.4579 0001101  79.2626  11.6850  1.00272082 44676"
      },
      "geometry": {
        "type": "Point",
        "coordinates": [
          -13.494343012537577,
          -3.2707692819986423
        ]
      }
    },
    {
      "type": "Feature",
      "properties": {
        "norad_id": 27513,
        "name": "INTELSAT 906 (IS-906)",
        "group": "intelsat",
        "lat": 5.041291804686914,
        "lon": 145.36571346980602,
        "alt_km": 35800.93288532784,
        "timestamp": "2025-12-17T23:38:06.530261+00:00",
        "meta_object_name": "INTELSAT 906 (IS-906)",
        "meta_object_id": "2002-041A",
        "meta_epoch": "2025-12-17T08:29:43.757088",
        "meta_mean_motion": 1.00272337,
        "meta_eccentricity": 0.00062852,
        "meta_inclination": 5.341,
        "meta_ra_of_asc_node": 75.1769,
        "meta_arg_of_pericenter": 196.4812,
        "meta_mean_anomaly": 6.1313,
        "meta_ephemeris_type": 0,
        "meta_classification_type": "U",
        "meta_norad_cat_id": 27513,
        "meta_element_set_no": 999,
        "meta_rev_at_epoch": 8520,
        "meta_bstar": 0,
        "meta_mean_motion_dot": 3.3e-07,
        "meta_mean_motion_ddot": 0,
        "tle_line1": "1 27513U 02041A   25351.35397867  .00000033  00000+0  00000+0 0  9993",
        "tle_line2": "2 27513   5.3410  75.1769 0006285 196.4812   6.1313  1.00272337 85204"
      },
      "geometry": {
        "type": "Point",
        "coordinates": [
          145.36571346980602,
          5.041291804686914
        ]
      }
    }
  ]
}